GLOBALSTAR M045         
1 25676U 99019A   25266.12005480 -.00000139  00000+0 -40430-3 0  9993
2 25676  51.9997  26.1372 0000868  94.2514  77.2051 12.27065257205417
GLOBALSTAR M019         
1 25677U 99019B   25266.10892566 -.00000120  00000+0 -30981-3 0  9991
2 25677  51.9874 163.4277 0001323 124.4173  23.7014 12.13877545197034
GLOBALSTAR M044         
1 25678U 99019C   25266.03546185  .00000045  00000+0  17957-2 0  9998
2 25678  51.9950 127.2338 0005326 225.7484 283.3840 11.90259739182974
GLOBALSTAR M042         
1 25679U 99019D   25266.06635937 -.00000016  00000+0  71650-3 0  9996
2 25679  51.9996 134.6383 0003396 126.5907  21.0678 12.22087942197221
GLOBALSTAR M025         
1 25770U 99031A   25266.06802821 -.00000073  00000+0 -18004-3 0  9998
2 25770  51.9817 292.5266 0002030 310.5642  75.3507 11.22558501492701
GLOBALSTAR M049         
1 25771U 99031B   25266.14011837 -.00000039  00000+0  91175-3 0  9998
2 25771  51.9909 332.0460 0003028 176.3632 183.7187 11.12122869128320
GLOBALSTAR M047         
1 25772U 99031C   25265.46432188 -.00000045  00000+0  68608-3 0  9991
2 25772  51.9854 321.2529 0016550  70.6491 289.6103 11.31929723482129
GLOBALSTAR M052         
1 25773U 99031D   25265.95446778 -.00000020  00000+0  15309-2 0  9998
2 25773  51.9852  79.7590 0002399 357.0009 122.1752 11.15060999489417
